{
    "links": {
        "self": "http://www.neowsapp.com/rest/v1/neo/3772399?api_key=iIulBulltgU6a56xZRHN4H3l9WmuAYTsLGpBGhQ2"
    },
    "id": "3772399",
    "neo_reference_id": "3772399",
    "name": "(2017 FB65)",
    "designation": "2017 FB65",
    "nasa_jpl_url": "http://ssd.jpl.nasa.gov/sbdb.cgi?sstr=3772399",
    "absolute_magnitude_h": 25.4,
    "estimated_diameter": {
        "kilometers": {
            "estimated_diameter_min": 0.022108281,
            "estimated_diameter_max": 0.0494356193
        },
        "meters": {
            "estimated_diameter_min": 22.1082810359,
            "estimated_diameter_max": 49.435619262
        },
        "miles": {
            "estimated_diameter_min": 0.0137374447,
            "estimated_diameter_max": 0.0307178602
        },
        "feet": {
            "estimated_diameter_min": 72.5337327539,
            "estimated_diameter_max": 162.1903570994
        }
    },
    "is_potentially_hazardous_asteroid": false,
    "close_approach_data": [
        {
            "close_approach_date": "2011-03-19",
            "close_approach_date_full": "2011-Mar-19 23:03",
            "epoch_date_close_approach": 1300575780000,
            "relative_velocity": {
                "kilometers_per_second": "13.897581828",
                "kilometers_per_hour": "50031.2945808097",
                "miles_per_hour": "31087.5007910592"
            },
            "miss_distance": {
                "astronomical": "0.1624247266",
                "lunar": "63.1832186474",
                "kilometers": "24298393.134692342",
                "miles": "15098321.3754326396"
            },
            "orbiting_body": "Earth"
        },
        {
            "close_approach_date": "2014-03-22",
            "close_approach_date_full": "2014-Mar-22 00:54",
            "epoch_date_close_approach": 1395449640000,
            "relative_velocity": {
                "kilometers_per_second": "13.8131544663",
                "kilometers_per_hour": "49727.3560786645",
                "miles_per_hour": "30898.6452256569"
            },
            "miss_distance": {
                "astronomical": "0.0931898203",
                "lunar": "36.2508400967",
                "kilometers": "13940998.622562761",
                "miles": "8662534.8569816618"
            },
            "orbiting_body": "Earth"
        },
        {
            "close_approach_date": "2017-03-24",
            "close_approach_date_full": "2017-Mar-24 00:39",
            "epoch_date_close_approach": 1490315940000,
            "relative_velocity": {
                "kilometers_per_second": "14.0329673166",
                "kilometers_per_hour": "50518.6823399141",
                "miles_per_hour": "31390.3445905983"
            },
            "miss_distance": {
                "astronomical": "0.0568035282",
                "lunar": "22.0965724698",
                "kilometers": "8497686.827204934",
                "miles": "5280217.7474747292"
            },
            "orbiting_body": "Earth"
        },
        {
            "close_approach_date": "2020-03-26",
            "close_approach_date_full": "2020-Mar-26 01:32",
            "epoch_date_close_approach": 1585186320000,
            "relative_velocity": {
                "kilometers_per_second": "14.5061402006",
                "kilometers_per_hour": "52222.1047219811",
                "miles_per_hour": "32448.785014611"
            },
            "miss_distance": {
                "astronomical": "0.0886287869",
                "lunar": "34.4765981041",
                "kilometers": "13258677.740923903",
                "miles": "8238560.3210917414"
            },
            "orbiting_body": "Earth"
        },
        {
            "close_approach_date": "2023-03-29",
            "close_approach_date_full": "2023-Mar-29 13:32",
            "epoch_date_close_approach": 1680096720000,
            "relative_velocity": {
                "kilometers_per_second": "15.3347726072",
                "kilometers_per_hour": "55205.1813857699",
                "miles_per_hour": "34302.3528449524"
            },
            "miss_distance": {
                "astronomical": "0.1580190639",
                "lunar": "61.4694158571",
                "kilometers": "23639315.378833893",
                "miles": "14688789.4481900034"
            },
            "orbiting_body": "Earth"
        }
    ],
    "orbital_data": {
        "orbit_id": "4",
        "orbit_determination_date": "2017-04-06 08:19:11",
        "first_observation_date": "2017-03-22",
        "last_observation_date": "2017-03-27",
        "data_arc_in_days": 5,
        "observations_used": 46,
        "orbit_uncertainty": "8",
        "minimum_orbit_intersection": ".0567558",
        "jupiter_tisserand_invariant": "4.844",
        "epoch_osculation": "2457836.5",
        "eccentricity": ".2176716884594661",
        "semi_major_axis": "1.313743195734024",
        "inclination": "25.7935607753629",
        "ascending_node_longitude": "4.531678020955574",
        "orbital_period": "550.0018450894762",
        "perihelion_distance": "1.027778496116464",
        "perihelion_argument": "148.7977188611508",
        "aphelion_distance": "1.599707895351584",
        "perihelion_time": "2457807.359387214895",
        "mean_anomaly": "19.07379165415554",
        "mean_motion": ".6545432587438573",
        "equinox": "J2000",
        "orbit_class": {
            "orbit_class_type": "AMO",
            "orbit_class_description": "Near-Earth asteroid orbits similar to that of 1221 Amor",
            "orbit_class_range": "1.017 AU < q (perihelion) < 1.3 AU"
        }
    },
    "is_sentry_object": false
}